[
    {
        "Altitude(m)": 624792.7768407108,
        "Argument of Periapsis(deg)": 0.0,
        "Eccentricity": 0.0,
        "Inclination(deg)": 60.0,
        "Latitude(deg)": -59.14710202867095,
        "Longitude(deg)": -165.97377594130168,
        "Mean Anomaly(deg)": 261.8182,
        "RAAN(deg)": 40.0,
        "Satellite Name": "Test1 192",
        "Satellite Number": 192,
        "Semi-Major Axis(m)": 6980739.136638005,
        "Time(s)": 0
    },
    {
        "Altitude(m)": 624842.1695555012,
        "Argument of Periapsis(deg)": 0.00010418945913296404,
        "Eccentricity": 0.0,
        "Inclination(deg)": 60.0,
        "Latitude(deg)": -59.289187726294735,
        "Longitude(deg)": -164.84427237174805,
        "Mean Anomaly(deg)": 262.43830614546187,
        "RAAN(deg)": 39.99957995086026,
        "Satellite Name": "Test1 192",
        "Satellite Number": 192,
        "Semi-Major Axis(m)": 6980739.136638005,
        "Time(s)": 10
    }
]